{"type": "FeatureCollection", "features": [ {"type": "Feature", "properties": {"norad_id": 39122, "name": "EUTELSAT 117 WEST A", "group": "eutelsat", "lat": -0.03304413085494732, "lon": -91.86258574101187, "alt_km": 35773.0671970219, "timestamp": "2025-12-03T20:47:57.888280+00:00", "meta": {"OBJECT_NAME": "EUTELSAT 117 WEST A", "OBJECT_ID": "2013-012A", "EPOCH": "2025-12-03T08:49:20.417088", "MEAN_MOTION": 1.00271901, "ECCENTRICITY": 0.0003159, "INCLINATION": 0.0376, "RA_OF_ASC_NODE": 56.9809, "ARG_OF_PERICENTER": 196.7734, "MEAN_ANOMALY": 194.2496, "EPHEMERIS_TYPE": 0, "CLASSIFICATION_TYPE": "U", "NORAD_CAT_ID": 39122, "ELEMENT_SET_NO": 999, "REV_AT_EPOCH": 4647, "BSTAR": 0, "MEAN_MOTION_DOT": 5e-08, "MEAN_MOTION_DDOT": 0}, "tle": {"line1": "1 39122U 13012A   25337.36759742  .00000005  00000+0  00000+0 0  9990", "line2": "2 39122   0.0376  56.9809 0003159 196.7734 194.2496  1.00271901 46474"}}, "geometry": {"type": "Point", "coordinates": [-91.86258574101187, -0.03304413085494732]}}, {"type": "Feature", "properties": {"norad_id": 39163, "name": "EUTELSAT 7B", "group": "eutelsat", "lat": 0.057493790105472134, "lon": 31.961630742902887, "alt_km": 35783.983148926534, "timestamp": "2025-12-03T20:47:57.888295+00:00", "meta": {"OBJECT_NAME": "EUTELSAT 7B", "OBJECT_ID": "2013-022A", "EPOCH": "2025-12-03T08:39:05.058144", "MEAN_MOTION": 1.00269611, "ECCENTRICITY": 0.0004191, "INCLINATION": 0.0677, "RA_OF_ASC_NODE": 0.1048, "ARG_OF_PERICENTER": 310.7582, "MEAN_ANOMALY": 258.36, "EPHEMERIS_TYPE": 0, "CLASSIFICATION_TYPE": "U", "NORAD_CAT_ID": 39163, "ELEMENT_SET_NO": 999, "REV_AT_EPOCH": 4599, "BSTAR": 0, "MEAN_MOTION_DOT": 6.6e-07, "MEAN_MOTION_DDOT": 0}, "tle": {"line1": "1 39163U 13022A   25337.36047521  .00000066  00000+0  00000+0 0  9998", "line2": "2 39163   0.0677   0.1048 0004191 310.7582 258.3600  1.00269611 45995"}}, "geometry": {"type": "Point", "coordinates": [31.961630742902887, 0.057493790105472134]}}, {"type": "Feature", "properties": {"norad_id": 39612, "name": "EXPRESS-AT1", "group": "eutelsat", "lat": 0.0294053537625238, "lon": 80.91498098993127, "alt_km": 35786.32563881012, "timestamp": "2025-12-03T20:47:57.888308+00:00", "meta": {"OBJECT_NAME": "EXPRESS-AT1", "OBJECT_ID": "2014-010A", "EPOCH": "2025-12-03T12:43:38.719200", "MEAN_MOTION": 1.00269885, "ECCENTRICITY": 2.81e-05, "INCLINATION": 0.0165, "RA_OF_ASC_NODE": 299.7247, "ARG_OF_PERICENTER": 218.5792, "MEAN_ANOMALY": 161.2291, "EPHEMERIS_TYPE": 0, "CLASSIFICATION_TYPE": "U", "NORAD_CAT_ID": 39612, "ELEMENT_SET_NO": 999, "REV_AT_EPOCH": 4285, "BSTAR": 0, "MEAN_MOTION_DOT": 9.7e-07, "MEAN_MOTION_DDOT": 0}, "tle": {"line1": "1 39612U 14010A   25337.53030925  .00000097  00000+0  00000+0 0  9998", "line2": "2 39612   0.0165 299.7247 0000281 218.5792 161.2291  1.00269885 42850"}}, "geometry": {"type": "Point", "coordinates": [80.91498098993127, 0.0294053537625238]}}, {"type": "Feature", "properties": {"norad_id": 39613, "name": "EXPRESS-AT2", "group": "eutelsat", "lat": -0.015737161839441318, "lon": 164.74585928359062, "alt_km": 35790.185048149295, "timestamp": "2025-12-03T20:47:57.888321+00:00", "meta": {"OBJECT_NAME": "EXPRESS-AT2", "OBJECT_ID": "2014-010B", "EPOCH": "2025-12-03T17:43:52.074624", "MEAN_MOTION": 1.00270479, "ECCENTRICITY": 0.000148, "INCLINATION": 0.0222, "RA_OF_ASC_NODE": 329.3759, "ARG_OF_PERICENTER": 322.2198, "MEAN_ANOMALY": 187.0383, "EPHEMERIS_TYPE": 0, "CLASSIFICATION_TYPE": "U", "NORAD_CAT_ID": 39613, "ELEMENT_SET_NO": 999, "REV_AT_EPOCH": 4254, "BSTAR": 0, "MEAN_MOTION_DOT": 0, "MEAN_MOTION_DDOT": 0}, "tle": {"line1": "1 39613U 14010B   25337.73879716  .00000000  00000+0  00000+0 0  9994", "line2": "2 39613   0.0222 329.3759 0001480 322.2198 187.0383  1.00270479 42543"}}, "geometry": {"type": "Point", "coordinates": [164.74585928359062, -0.015737161839441318]}}, {"type": "Feature", "properties": {"norad_id": 39773, "name": "EUTELSAT 3B", "group": "eutelsat", "lat": 0.04851749237111355, "lon": 28.03041071611068, "alt_km": 35805.27545279778, "timestamp": "2025-12-03T20:47:57.888333+00:00", "meta": {"OBJECT_NAME": "EUTELSAT 3B", "OBJECT_ID": "2014-030A", "EPOCH": "2025-12-03T08:38:05.151840", "MEAN_MOTION": 1.00270778, "ECCENTRICITY": 0.0004767, "INCLINATION": 0.0633, "RA_OF_ASC_NODE": 2.1148, "ARG_OF_PERICENTER": 225.8491, "MEAN_ANOMALY": 337.1039, "EPHEMERIS_TYPE": 0, "CLASSIFICATION_TYPE": "U", "NORAD_CAT_ID": 39773, "ELEMENT_SET_NO": 999, "REV_AT_EPOCH": 4210, "BSTAR": 0, "MEAN_MOTION_DOT": 3.8e-07, "MEAN_MOTION_DDOT": 0}, "tle": {"line1": "1 39773U 14030A   25337.35978185  .00000038  00000+0  00000+0 0  9992", "line2": "2 39773   0.0633   2.1148 0004767 225.8491 337.1039  1.00270778 42109"}}, "geometry": {"type": "Point", "coordinates": [28.03041071611068, 0.04851749237111355]}}, {"type": "Feature", "properties": {"norad_id": 40425, "name": "EUTELSAT 115 WEST B", "group": "eutelsat", "lat": 0.008550220539741622, "lon": -89.97858822074025, "alt_km": 35787.39801713674, "timestamp": "2025-12-03T20:47:57.888345+00:00", "meta": {"OBJECT_NAME": "EUTELSAT 115 WEST B", "OBJECT_ID": "2015-010B", "EPOCH": "2025-12-02T23:30:40.501152", "MEAN_MOTION": 1.00271793, "ECCENTRICITY": 3.39e-05, "INCLINATION": 0.0139, "RA_OF_ASC_NODE": 143.9078, "ARG_OF_PERICENTER": 285.8537, "MEAN_ANOMALY": 240.0881, "EPHEMERIS_TYPE": 0, "CLASSIFICATION_TYPE": "U", "NORAD_CAT_ID": 40425, "ELEMENT_SET_NO": 999, "REV_AT_EPOCH": 3942, "BSTAR": 0, "MEAN_MOTION_DOT": -6e-08, "MEAN_MOTION_DDOT": 0}, "tle": {"line1": "1 40425U 15010B   25336.97963543 -.00000006  00000+0  00000+0 0  9992", "line2": "2 40425   0.0139 143.9078 0000339 285.8537 240.0881  1.00271793 39426"}}, "geometry": {"type": "Point", "coordinates": [-89.97858822074025, 0.008550220539741622]}}, {"type": "Feature", "properties": {"norad_id": 40875, "name": "EUTELSAT 8 WEST B", "group": "eutelsat", "lat": 0.05207744488787585, "lon": 16.96404534882835, "alt_km": 35795.46044756227, "timestamp": "2025-12-03T20:47:57.888358+00:00", "meta": {"OBJECT_NAME": "EUTELSAT 8 WEST B", "OBJECT_ID": "2015-039B", "EPOCH": "2025-12-03T10:17:25.637280", "MEAN_MOTION": 1.00271591, "ECCENTRICITY": 0.0004135, "INCLINATION": 0.0656, "RA_OF_ASC_NODE": 347.3797, "ARG_OF_PERICENTER": 267.4341, "MEAN_ANOMALY": 324.0684, "EPHEMERIS_TYPE": 0, "CLASSIFICATION_TYPE": "U", "NORAD_CAT_ID": 40875, "ELEMENT_SET_NO": 999, "REV_AT_EPOCH": 3769, "BSTAR": 0, "MEAN_MOTION_DOT": -4.7e-07, "MEAN_MOTION_DDOT": 0}, "tle": {"line1": "1 40875U 15039B   25337.42876895 -.00000047  00000+0  00000+0 0  9991", "line2": "2 40875   0.0656 347.3797 0004135 267.4341 324.0684  1.00271591 37691"}}, "geometry": {"type": "Point", "coordinates": [16.96404534882835, 0.05207744488787585]}}, {"type": "Feature", "properties": {"norad_id": 41310, "name": "EUTELSAT 9B", "group": "eutelsat", "lat": -0.012012128641833184, "lon": 33.946485567351985, "alt_km": 35799.32594819872, "timestamp": "2025-12-03T20:47:57.888370+00:00", "meta": {"OBJECT_NAME": "EUTELSAT 9B", "OBJECT_ID": "2016-005A", "EPOCH": "2025-12-03T08:39:42.496992", "MEAN_MOTION": 1.00271274, "ECCENTRICITY": 0.0004901, "INCLINATION": 0.0656, "RA_OF_ASC_NODE": 75.0205, "ARG_OF_PERICENTER": 189.7791, "MEAN_ANOMALY": 306.5652, "EPHEMERIS_TYPE": 0, "CLASSIFICATION_TYPE": "U", "NORAD_CAT_ID": 41310, "ELEMENT_SET_NO": 999, "REV_AT_EPOCH": 3615, "BSTAR": 0, "MEAN_MOTION_DOT": 8e-07, "MEAN_MOTION_DDOT": 0}, "tle": {"line1": "1 41310U 16005A   25337.36090853  .00000080  00000+0  00000+0 0  9991", "line2": "2 41310   0.0656  75.0205 0004901 189.7791 306.5652  1.00271274 36159"}}, "geometry": {"type": "Point", "coordinates": [33.946485567351985, -0.012012128641833184]}}, {"type": "Feature", "properties": {"norad_id": 41382, "name": "EUTELSAT 65 WEST A", "group": "eutelsat", "lat": -0.02291303182057487, "lon": -40.25623315887353, "alt_km": 35780.616251516825, "timestamp": "2025-12-03T20:47:57.888383+00:00", "meta": {"OBJECT_NAME": "EUTELSAT 65 WEST A", "OBJECT_ID": "2016-014A", "EPOCH": "2025-12-03T10:01:12.190080", "MEAN_MOTION": 1.00270652, "ECCENTRICITY": 0.000278, "INCLINATION": 0.0504, "RA_OF_ASC_NODE": 344.5568, "ARG_OF_PERICENTER": 274.9702, "MEAN_ANOMALY": 258.0819, "EPHEMERIS_TYPE": 0, "CLASSIFICATION_TYPE": "U", "NORAD_CAT_ID": 41382, "ELEMENT_SET_NO": 999, "REV_AT_EPOCH": 3557, "BSTAR": 0, "MEAN_MOTION_DOT": -2.58e-06, "MEAN_MOTION_DDOT": 0}, "tle": {"line1": "1 41382U 16014A   25337.41750220 -.00000258  00000+0  00000+0 0  9995", "line2": "2 41382   0.0504 344.5568 0002780 274.9702 258.0819  1.00270652 35578"}}, "geometry": {"type": "Point", "coordinates": [-40.25623315887353, -0.02291303182057487]}}, {"type": "Feature", "properties": {"norad_id": 41589, "name": "EUTELSAT 117 WEST B", "group": "eutelsat", "lat": 0.01649309415485341, "lon": -92.08916779250721, "alt_km": 35787.263485746575, "timestamp": "2025-12-03T20:47:57.888395+00:00", "meta": {"OBJECT_NAME": "EUTELSAT 117 WEST B", "OBJECT_ID": "2016-038B", "EPOCH": "2025-12-02T23:30:03.060576", "MEAN_MOTION": 1.00267861, "ECCENTRICITY": 1.928e-05, "INCLINATION": 0.0046, "RA_OF_ASC_NODE": 146.1916, "ARG_OF_PERICENTER": 23.0604, "MEAN_ANOMALY": 138.3396, "EPHEMERIS_TYPE": 0, "CLASSIFICATION_TYPE": "U", "NORAD_CAT_ID": 41589, "ELEMENT_SET_NO": 999, "REV_AT_EPOCH": 3469, "BSTAR": 0, "MEAN_MOTION_DOT": 8e-08, "MEAN_MOTION_DDOT": 0}, "tle": {"line1": "1 41589U 16038B   25336.97920209  .00000008  00000+0  00000+0 0  9998", "line2": "2 41589   0.0046 146.1916 0000192  23.0604 138.3396  1.00267861 34690"}}, "geometry": {"type": "Point", "coordinates": [-92.08916779250721, 0.01649309415485341]}}]}